[{"OBJECT_NAME":"STARLINK-1741","OBJECT_ID":"2020-070AM","EPOCH":"2026-03-10T00:00:02.999808","MEAN_MOTION":15.63456051,"ECCENTRICITY":0.00023144,"INCLINATION":53.0419,"RA_OF_ASC_NODE":116.274,"ARG_OF_PERICENTER":167.1739,"MEAN_ANOMALY":276.5113,"EPHEMERIS_TYPE":0,"CLASSIFICATION_TYPE":"U","NORAD_CAT_ID":46567,"ELEMENT_SET_NO":999,"REV_AT_EPOCH":584,"BSTAR":0.002236825,"MEAN_MOTION_DOT":0.00215668,"MEAN_MOTION_DDOT":0},{"OBJECT_NAME":"SL-3 R\/B","OBJECT_ID":"1971-028B","EPOCH":"2026-03-09T23:26:33.046368","MEAN_MOTION":15.61151527,"ECCENTRICITY":0.00133529,"INCLINATION":81.2357,"RA_OF_ASC_NODE":51.6747,"ARG_OF_PERICENTER":284.2285,"MEAN_ANOMALY":75.7485,"EPHEMERIS_TYPE":0,"CLASSIFICATION_TYPE":"U","NORAD_CAT_ID":5118,"ELEMENT_SET_NO":999,"REV_AT_EPOCH":98871,"BSTAR":0.00052549652,"MEAN_MOTION_DOT":0.00044731,"MEAN_MOTION_DDOT":0}]
